{"fetched_at":"2026-03-29T16:36:15Z","count":15609,"tles":[{"name":"COSMOS 2583","line1":"1 62904U 25026C   26087.69855087  .00002514  00000+0  22902-3 0  9996","line2":"2 62904  81.9971 156.6109 0009102 328.9999  31.0682 14.94789406 62175","category":"Other"}]}